H1 CPF 01  gfz 2021 10 28 00  8003 tandemx   
H2 1003001  6202 36605    2021 10 27 12 59 42 2021 11 01 00 00 42   120 1 1  0 0 0
H9
10 0 59514  46782.000000  0     125717.316  -2787786.579   6287587.291
10 0 59514  46902.000000  0    -161730.166  -3563381.874   5882954.164
10 0 59514  47022.000000  0    -459338.819  -4271644.008   5374878.438
10 0 59514  47142.000000  0    -760622.324  -4900057.268   4772255.806
10 0 59514  47262.000000  0   -1058819.472  -5437607.095   4085654.331
10 0 59514  47382.000000  0   -1347041.765  -5874983.859   3327132.584
10 0 59514  47502.000000  0   -1618426.948  -6204753.237   2510028.397
10 0 59514  47622.000000  0   -1866295.831  -6421491.744   1648723.749
10 0 59514  47742.000000  0   -2084309.170  -6521883.594    758386.956
10 0 59514  47862.000000  0   -2266618.273  -6504774.730   -145302.036
10 0 59514  47982.000000  0   -2408006.603  -6371183.542  -1046436.395
10 0 59514  48102.000000  0   -2504019.111  -6124267.712  -1929171.068
10 0 59514  48222.000000  0   -2551076.230  -5769248.393  -2778009.210
10 0 59514  48342.000000  0   -2546569.278  -5313293.405  -3578080.513
10 0 59514  48462.000000  0   -2488934.642  -4765362.387  -4315404.397
10 0 59514  48582.000000  0   -2377705.488  -4136019.854  -4977132.102
10 0 59514  48702.000000  0   -2213540.707  -3437222.087  -5551764.595
10 0 59514  48822.000000  0   -1998231.075  -2682082.810  -6029344.101
10 0 59514  48942.000000  0   -1734682.085  -1884621.944  -6401616.891
10 0 59514  49062.000000  0   -1426873.826  -1059502.972  -6662164.265
10 0 59514  49182.000000  0   -1079800.486   -221764.846  -6806501.740
10 0 59514  49302.000000  0    -699390.094    613447.365  -6832147.217
10 0 59514  49422.000000  0    -292404.500   1431149.214  -6738658.831
10 0 59514  49542.000000  0     133677.393   2216778.515  -6527641.434
10 0 59514  49662.000000  0     570792.428   2956448.618  -6202723.898
10 0 59514  49782.000000  0    1010442.563   3637191.399  -5769504.319
10 0 59514  49902.000000  0    1443855.696   4247183.712  -5235462.158
10 0 59514  50022.000000  0    1862156.669   4775955.273  -4609841.168
10 0 59514  50142.000000  0    2256546.201   5214575.440  -3903500.558
10 0 59514  50262.000000  0    2618483.337   5555812.539  -3128735.301
10 0 59514  50382.000000  0    2939868.261   5794263.472  -2299069.447
10 0 59514  50502.000000  0    3213221.825   5926449.940  -1429023.317
10 0 59514  50622.000000  0    3431856.406   5950877.758   -533858.322
10 0 59514  50742.000000  0    3590033.138   5868056.571    370695.587
10 0 59514  50862.000000  0    3683101.599   5680478.986   1268723.217
10 0 59514  50982.000000  0    3707619.266   5392559.741   2144411.720
10 0 59514  51102.000000  0    3661446.624   5010537.612   2982337.418
10 0 59514  51222.000000  0    3543815.149   4542339.448   3767746.835
10 0 59514  51342.000000  0    3355367.393   3997410.402   4486820.614
10 0 59514  51462.000000  0    3098167.771   3386519.014   5126921.646
10 0 59514  51582.000000  0    2775680.297   2721536.163   5676817.189
10 0 59514  51702.000000  0    2392721.704   2015198.052   6126870.840
10 0 59514  51822.000000  0    1955388.159   1280857.850   6469207.064
10 0 59514  51942.000000  0    1470954.885    532229.314   6697842.850
10 0 59514  52062.000000  0     947752.567   -216869.519   6808785.416
10 0 59514  52182.000000  0     395023.302   -952770.324   6800098.850
10 0 59514  52302.000000  0    -177243.033  -1662204.400   6671936.181
10 0 59514  52422.000000  0    -758489.512  -2332541.733   6426536.305
10 0 59514  52542.000000  0   -1337786.356  -2952016.119   6068185.916
10 0 59514  52662.000000  0   -1904033.731  -3509932.005   5603148.409
10 0 59514  52782.000000  0   -2446173.490  -3996852.067   5039562.225
10 0 59514  52902.000000  0   -2953407.618  -4404762.641   4387305.928
10 0 59514  53022.000000  0   -3415417.079  -4727211.950   3657829.283
10 0 59514  53142.000000  0   -3822574.484  -4959417.854   2863953.821
10 0 59514  53262.000000  0   -4166146.133  -5098343.273   2019647.472
10 0 59514  53382.000000  0   -4438480.853  -5142737.579   1139776.013
10 0 59514  53502.000000  0   -4633179.716  -5093141.363    239835.470
10 0 59514  53622.000000  0   -4745242.208  -4951854.956   -664328.311
10 0 59514  53742.000000  0   -4771185.133  -4722871.279  -1556807.980
10 0 59514  53862.000000  0   -4709129.979  -4411773.728  -2421924.119
10 0 59514  53982.000000  0   -4558856.811  -4025601.993  -3244507.717
10 0 59514  54102.000000  0   -4321824.390  -3572691.116  -4010169.313
10 0 59514  54222.000000  0   -4001156.959  -3062488.522  -4705550.452
10 0 59514  54342.000000  0   -3601598.437  -2505352.959  -5318553.124
10 0 59514  54462.000000  0   -3129435.468  -1912340.861  -5838542.804
10 0 59514  54582.000000  0   -2592392.468  -1294985.211  -6256523.243
10 0 59514  54702.000000  0   -1999500.183   -665070.976  -6565281.436
10 0 59514  54822.000000  0   -1360940.317    -34412.014  -6759500.125
10 0 59514  54942.000000  0    -687871.434    585365.785  -6835838.092
10 0 59514  55062.000000  0       7762.236   1183033.075  -6792981.632
10 0 59514  55182.000000  0     713437.114   1747954.980  -6631664.421
10 0 59514  55302.000000  0    1416269.837   2270275.762  -6354658.822
10 0 59514  55422.000000  0    2103248.046   2741088.612  -5966733.400
10 0 59514  55542.000000  0    2761467.235   3152587.321  -5474579.294
10 0 59514  55662.000000  0    3378370.200   3498196.405  -4886704.880
10 0 59514  55782.000000  0    3941986.555   3772680.206  -4213301.150
10 0 59514  55902.000000  0    4441168.299   3972227.242  -3466075.572
10 0 59514  56022.000000  0    4865815.858   4094507.338  -2658056.204
10 0 59514  56142.000000  0    5207087.872   4138699.700  -1803368.846
10 0 59514  56262.000000  0    5457591.244   4105491.463   -916991.151
10 0 59514  56382.000000  0    5611545.367   3997045.429    -14487.263
10 0 59514  56502.000000  0    5664916.559   3816938.242    888270.549
10 0 59514  56622.000000  0    5615519.385   3570069.031   1775389.022
10 0 59514  56742.000000  0    5463080.227   3262540.349   2631242.665
10 0 59514  56862.000000  0    5209261.822   2901516.066   3440757.851
10 0 59514  56982.000000  0    4857648.081   2495058.441   4189685.951
10 0 59514  57102.000000  0    4413688.874   2051948.228   4864857.568
10 0 59514  57222.000000  0    3884611.187   1581495.674   5454414.453
10 0 59514  57342.000000  0    3279292.999   1093344.234   5948018.488
10 0 59514  57462.000000  0    2608105.234    597271.021   6337027.192
10 0 59514  57582.000000  0    1882728.540    102991.513   6614637.265
10 0 59514  57702.000000  0    1115947.374   -380029.219   6775998.636
10 0 59514  57822.000000  0     321421.978   -842757.418   6818295.568
10 0 59514  57942.000000  0    -486556.232  -1276759.118   6740791.680
10 0 59514  58062.000000  0   -1293321.410  -1674353.596   6544841.295
10 0 59514  58182.000000  0   -2084098.284  -2028749.260   6233865.715
10 0 59514  58302.000000  0   -2844270.352  -2334158.974   5813297.548
10 0 59514  58422.000000  0   -3559651.396  -2585896.375   5290494.604
10 0 59514  58542.000000  0   -4216755.722  -2780450.327   4674616.672
10 0 59514  58662.000000  0   -4803057.509  -2915534.469   3976468.948
10 0 59514  58782.000000  0   -5307235.728  -2990110.895   3208315.661
10 0 59514  58902.000000  0   -5719399.948  -3004388.336   2383666.898
10 0 59514  59022.000000  0   -6031292.801  -2959795.299   1517040.062
10 0 59514  59142.000000  0   -6236462.156  -2858927.590    623698.620
10 0 59514  59262.000000  0   -6330397.573  -2705469.780   -280624.048
10 0 59514  59382.000000  0   -6310629.546  -2504094.867  -1180010.302
10 0 59514  59502.000000  0   -6176786.279  -2260342.963  -2058648.664
10 0 59514  59622.000000  0   -5930606.756  -1980483.313  -2901119.204
10 0 59514  59742.000000  0   -5575912.632  -1671363.477  -3692668.779
10 0 59514  59862.000000  0   -5118539.038  -1340249.535  -4419471.011
10 0 59514  59982.000000  0   -4566227.385   -994661.425  -5068865.712
10 0 59514  60102.000000  0   -3928482.637   -642206.971  -5629574.230
10 0 59514  60222.000000  0   -3216398.969   -290418.972  -6091886.126
10 0 59514  60342.000000  0   -2442459.364     53401.210  -6447815.780
10 0 59514  60462.000000  0   -1620313.159    382330.047  -6691228.587
10 0 59514  60582.000000  0    -764535.080    689955.638  -6817935.686
10 0 59514  60702.000000  0     109628.899    970498.715  -6825757.612
10 0 59514  60822.000000  0     986525.793   1218917.577  -6714557.190
10 0 59514  60942.000000  0    1850369.016   1430996.051  -6486244.516
10 0 59514  61062.000000  0    2685517.231   1603414.690  -6144747.924
10 0 59514  61182.000000  0    3476753.295   1733802.328  -5695952.952
10 0 59514  61302.000000  0    4209558.184   1820767.555  -5147610.289
10 0 59514  61422.000000  0    4870378.617   1863910.657  -4509214.333
10 0 59514  61542.000000  0    5446883.190   1863815.025  -3791849.355
10 0 59514  61662.000000  0    5928199.889   1822017.379  -3008006.024
10 0 59514  61782.000000  0    6305131.541   1740957.647  -2171371.388
10 0 59514  61902.000000  0    6570344.024   1623909.670  -1296592.444
10 0 59514  62022.000000  0    6718520.015   1474892.949   -399018.189
10 0 59514  62142.000000  0    6746474.661   1298567.353    505575.091
10 0 59514  62262.000000  0    6653227.627   1100114.374   1401267.765
10 0 59514  62382.000000  0    6440034.408    885107.340   2272284.948
10 0 59514  62502.000000  0    6110370.378    659372.709   3103284.531
10 0 59514  62622.000000  0    5669870.130    428847.544   3879634.719
10 0 59514  62742.000000  0    5126222.821    199436.343   4587677.421
10 0 59514  62862.000000  0    4489029.110    -23127.899   5214969.846
10 0 59514  62982.000000  0    3769621.536   -233417.745   5750504.022
10 0 59514  63102.000000  0    2980852.287   -426434.878   6184895.660
10 0 59514  63222.000000  0    2136856.439   -597720.818   6510542.914
99
